ONEWEB-0201             
1 48241U 21031AH  21188.91668981 -.00968207  00000-0 -43512+0 0  9992
2 48241  87.7112 289.9843 0011060  10.6462  65.5586 14.25597584  3511
ONEWEB-0207             
1 48242U 21031AJ  21188.91668981 -.01170160  00000-0 -59798+0 0  9990
2 48242  87.6809 289.9439 0009933  30.3878  66.6461 14.18907676  3514
ONEWEB-0208             
1 48243U 21031AK  21189.25002315 -.01111069  00000-0 -53650+0 0  9996
2 48243  87.6870 289.8258 0007991  27.5193 279.4488 14.21760902 10920
ONEWEB-0200             
1 48244U 21031AL  21188.91668981 -.01202263  00000-0 -73170+0 0  9992
2 48244  87.6094 289.9043 0011266  22.0042 338.4234 14.09532450  3484
ONEWEB-0217             
1 48245U 21031AM  21189.25002315 -.01109223  00000-0 -74984+0 0  9990
2 48245  87.5817 289.7723 0008900  41.3328 188.2985 14.04018754 10845
ONEWEB-0211             
1 48767U 21045A   21189.25002315 -.00941082  00000-0 -75440-1 0  9990
2 48767  87.4864 262.5101 0009341 121.5648 249.3457 15.03201880  7483
ONEWEB-0223             
1 48768U 21045B   21189.25002315 -.00998649  00000-0 -81984-1 0  9992
2 48768  87.4906 262.4933 0013575 102.3163  99.1305 15.01951425  7495
ONEWEB-0230             
1 48769U 21045C   21189.25002315 -.00829696  00000-0 -43002-1 0  9997
2 48769  87.5137 262.3882 0009806 111.3153 142.1410 15.18994269  7493
ONEWEB-0237             
1 48770U 21045D   21189.25002315 -.01009738  00000-0 -10533+0 0  9998
2 48770  87.4470 262.5643 0013497 115.7708 287.5867 14.92730277  7461
ONEWEB-0235             
1 48771U 21045E   21189.25002315 -.00965780  00000-0 -91844-1 0  9992
2 48771  87.4503 262.5643 0008273 119.1493 129.5813 14.96294304  7459
ONEWEB-0242             
1 48772U 21045F   21189.16667824 -.00913598  00000-0 -69948-1 0  9995
2 48772  87.4872 262.5080 0012690 121.2415 322.3318 15.04785605  7474
ONEWEB-0241             
1 48773U 21045G   21189.25002315 -.01002634  00000-0 -92990-1 0  9998
2 48773  87.4539 262.5323 0009755 108.1563 277.4121 14.97353307  7474
ONEWEB-0243             
1 48774U 21045H   21188.91668981 -.01004187  00000-0 -99767-1 0  9992
2 48774  87.4510 262.6893 0013392 119.6042 311.6097 14.94632892  7411
ONEWEB-0222             
1 48775U 21045J   21189.25002315 -.01007059  00000-0 -88276-1 0  9998
2 48775  87.4729 262.5136 0012833 117.3422 253.6558 14.99494281  7486
ONEWEB-0244             
1 48776U 21045K   21188.91668981 -.00960408  00000-0 -64418-1 0  9995
2 48776  87.5092 262.5850 0008347 109.2275 353.1117 15.09850374  7449
ONEWEB-0247             
1 48777U 21045L   21189.25002315 -.01018991  00000-0 -94573-1 0  9994
2 48777  87.4556 262.5317 0009387 107.8455 284.9355 14.97376979  7479
ONEWEB-0245             
1 48778U 21045M   21189.25002315 -.00031462  00000-0 -29375-2 0  9991
2 48778  87.4478 262.5744 0013720 113.4697 327.4190 14.94394868  7478
ONEWEB-0229             
1 48779U 21045N   21188.91668981 -.00985892  00000-0 -91436-1 0  9992
2 48779  87.4623 262.6548 0009007 120.3324 303.6107 14.97315140  7429
ONEWEB-0228             
1 48780U 21045P   21188.91668981 -.00983473  00000-0 -97004-1 0  9994
2 48780  87.4510 262.6692 0012057 105.9081  83.3444 14.94875755  7420
ONEWEB-0232             
1 48781U 21045Q   21189.25002315 -.00791750  00000-0 -34998-1 0  9994
2 48781  87.5067 262.3398 0012225 123.7038  87.6170 15.24237257  7499
ONEWEB-0231             
1 48782U 21045R   21188.91668981 -.00991499  00000-0 -88781-1 0  9995
2 48782  87.4620 262.6270 0010462 121.6133  65.9841 14.98667752  7424
ONEWEB-0234             
1 48783U 21045S   21188.91668981 -.00985325  00000-0 -86953-1 0  9996
2 48783  87.4628 262.6516 0010938 104.9959 279.8903 14.99202848  7421
ONEWEB-0238             
1 48784U 21045T   21189.25002315 -.00997637  00000-0 -87941-1 0  9995
2 48784  87.4720 262.5235 0012112 119.6185 188.4582 14.99264248  7488
ONEWEB-0240             
1 48785U 21045U   21188.91668981 -.00923660  00000-0 -70523-1 0  9998
2 48785  87.4817 262.6393 0009677 114.0603 114.7885 15.04962063  7427
ONEWEB-0246             
1 48786U 21045V   21189.25002315 -.01012358  00000-0 -11368+0 0  9994
2 48786  87.4283 262.5948 0008776 126.6223 304.4583 14.89866452  7448
ONEWEB-0210             
1 48787U 21045W   21188.91668981 -.00985820  00000-0 -97782-1 0  9992
2 48787  87.4480 262.6718 0012273 105.0183  44.3724 14.94660181  7418
ONEWEB-0214             
1 48788U 21045X   21189.25002315 -.01014581  00000-0 -11643+0 0  9992
2 48788  87.4290 262.6025 0008435 116.7176 214.4157 14.89005444  7447
ONEWEB-0221             
1 48789U 21045Y   21189.25002315 -.00998402  00000-0 -81123-1 0  9997
2 48789  87.4906 262.4983 0013435  99.0770 131.6161 15.02341939  7502
ONEWEB-0213             
1 48790U 21045Z   21188.91668981 -.00974471  00000-0 -80914-1 0  9995
2 48790  87.4806 262.6087 0013848 109.1386 359.4971 15.01451385  3628
ONEWEB-0212             
1 48791U 21045AA  21189.16667824 -.00935461  00000-0 -77726-1 0  9992
2 48791  87.4844 262.5379 0013677 106.9137 321.2586 15.01773184  7484
ONEWEB-0227             
1 48792U 21045AB  21189.16667824 -.00933635  00000-0 -88883-1 0  9990
2 48792  87.4822 262.6291 0011033 105.2099 104.0206 14.96128792  7464
ONEWEB-0226             
1 48793U 21045AC  21189.16667824 -.00950776  00000-0 -92370-1 0  9992
2 48793  87.4410 262.5872 0012497 127.1801 167.8152 14.95367766  7441
ONEWEB-0224             
1 48794U 21045AD  21188.91668981 -.01008596  00000-0 -12195+0 0  9990
2 48794  87.4029 262.7087 0010460 111.9111  44.6570 14.86853261  3588
ONEWEB-0233             
1 48795U 21045AE  21188.91668981 -.01011718  00000-0 -11889+0 0  9990
2 48795  87.4114 262.7195 0009331 118.0740 125.8916 14.88030325  3604
ONEWEB-0190             
1 48796U 21045AF  21189.25002315 -.00996338  00000-0 -97715-1 0  9995
2 48796  87.4461 262.5742 0011843 127.5474 244.2858 14.95138063  7450
ONEWEB-0236             
1 48797U 21045AG  21189.16667824 -.00938317  00000-0 -10758+0 0  9991
2 48797  87.4161 262.6025 0008806 123.1304 149.9143 14.88809339  7431
ONEWEB-0248             
1 48798U 21045AH  21189.25002315 -.00947547  00000-0 -73666-1 0  9994
2 48798  87.4868 262.4871 0011690 122.1445   7.8216 15.04337416  7482
ONEWEB-0225             
1 48799U 21045AJ  21188.91668981 -.00972576  00000-0 -72040-1 0  9999
2 48799  87.4774 262.6031 0009075 121.7288 294.3781 15.06247675  3613
ONEWEB-0215             
1 48800U 21045AK  21188.91668981 -.01002190  00000-0 -10994+0 0  9997
2 48800  87.4266 262.6894 0010671 126.4651  20.8100 14.90747964  3603
ONEWEB-0216             
1 48801U 21045AL  21189.16667824 -.00944833  00000-0 -10358+0 0  9993
2 48801  87.4455 262.6739 0009497 126.5882 261.7042 14.90618239  7431
ONEWEB-0239             
1 48802U 21045AM  21189.16667824 -.00892721  00000-0 -88172-1 0  9993
2 48802  87.4665 262.5942 0013645 121.9682 218.1222 14.94991420  7455
ONEWEB-0249             
1 48967U 21060A   21189.25002315 -.00064941  00000-0 -16091-2 0  9997
2 48967  87.3972 235.0454 0004075 256.4518 289.0520 15.40701226  2312
ONEWEB-0250             
1 48968U 21060B   21189.25002315 -.00065593  00000-0 -16577-2 0  9991
2 48968  87.3983 235.0462 0005579 226.9799 304.1093 15.40094133  2313
ONEWEB-0251             
1 48969U 21060C   21189.25002315 -.00066323  00000-0 -17448-2 0  9992
2 48969  87.3964 235.0479 0007320 263.0476 238.7896 15.38856022  2303
ONEWEB-0252             
1 48970U 21060D   21189.25002315 -.00063832  00000-0 -15392-2 0  9992
2 48970  87.3999 235.0453 0007554 252.0385 312.4276 15.41496129  2327
ONEWEB-0253             
1 48971U 21060E   21189.16667824 -.00031218  00000-0 -85285-3 0  9997
2 48971  87.3987 235.0869 0005144 235.1556 136.1141 15.37591109  2298
ONEWEB-0254             
1 48972U 21060F   21189.25002315 -.00066338  00000-0 -17384-2 0  9991
2 48972  87.3977 235.0515 0007705 260.5561 244.0418 15.38972398  2301
ONEWEB-0255             
1 48973U 21060G   21189.25002315 -.00065087  00000-0 -16192-2 0  9998
2 48973  87.3991 235.0453 0003609 252.8313 289.8348 15.40582147  2319
ONEWEB-0256             
1 48974U 21060H   21189.25002315 -.00066195  00000-0 -17186-2 0  9994
2 48974  87.3993 235.0507 0007920 249.5919 261.6048 15.39255098  2312
ONEWEB-0257             
1 48975U 21060J   21189.25002315 -.00065814  00000-0 -16765-2 0  9994
2 48975  87.3985 235.0457 0006540 230.7569 294.4931 15.39846952  2318
ONEWEB-0258             
1 48976U 21060K   21189.25002315 -.00065370  00000-0 -17779-2 0  9998
2 48976  87.3999 235.0577 0004535 245.1240 232.9018 15.37846853  2305
ONEWEB-0259             
1 48977U 21060L   21189.25002315 -.00063868  00000-0 -15272-2 0  9995
2 48977  87.3991 235.0426 0008396 247.2514 323.0946 15.41741193  2327
ONEWEB-0260             
1 48978U 21060M   21189.25002315 -.00065540  00000-0 -17894-2 0  9997
2 48978  87.3960 235.0523 0004875 239.3485 235.7338 15.37726373  2309
ONEWEB-0261             
1 48979U 21060N   21189.25002315 -.00064021  00000-0 -15370-2 0  9998
2 48979  87.3974 235.0387 0008004 249.2385 318.3832 15.41624673  2324
ONEWEB-0262             
1 48980U 21060P   21189.25002315 -.00064549  00000-0 -15864-2 0  9993
2 48980  87.3982 235.0443 0005014 261.6379 289.5992 15.40941662  2311
ONEWEB-0263             
1 48981U 21060Q   21189.25002315 -.00065803  00000-0 -16698-2 0  9994
2 48981  87.3979 235.0493 0006070 229.2477 298.8275 15.39967090  2313
ONEWEB-0264             
1 48982U 21060R   21189.25002315 -.00066022  00000-0 -17513-2 0  9996
2 48982  87.3971 235.0507 0006598 269.3295 226.6937 15.38606791  2300
ONEWEB-0265             
1 48983U 21060S   21189.25002315 -.00065259  00000-0 -16223-2 0  9995
2 48983  87.3977 235.0441 0003802 245.3696 297.7305 15.40604065  2312
ONEWEB-0266             
1 48984U 21060T   21189.25002315 -.00066165  00000-0 -17171-2 0  9996
2 48984  87.3950 235.0474 0007482 247.4470 264.4661 15.39271770  2318
